H1 CPF  1  DLR 2021 06 20 10  6712 technosat            
H2  1704205 6203    42829 2021 06 20 00 00 00 2021 06 27 00 00 00    60 1 1  0 0 0
H9
10 0 59385  28800.000000  0       5629461.371       1699253.359      -3776495.392
10 0 59385  28860.000000  0       5876071.905       1672779.415      -3392323.871
10 0 59385  28920.000000  0       6097829.487       1637258.461      -2993857.886
10 0 59385  28980.000000  0       6293714.360       1593057.110      -2582769.409
10 0 59385  29040.000000  0       6462817.606       1540586.976      -2160785.606
10 0 59385  29100.000000  0       6604345.678       1480302.047      -1729681.644
10 0 59385  29160.000000  0       6717624.401       1412695.842      -1291273.255
10 0 59385  29220.000000  0       6802102.513       1338298.327       -847409.096
10 0 59385  29280.000000  0       6857354.612       1257672.637       -399962.826
10 0 59385  29340.000000  0       6883083.415       1171411.653         49174.927
10 0 59385  29400.000000  0       6879121.470       1080134.440        498104.588
10 0 59385  29460.000000  0       6845432.402        984482.545        944925.778
10 0 59385  29520.000000  0       6782111.518        885116.115       1387745.558
10 0 59385  29580.000000  0       6689385.731        782709.949       1824686.733
10 0 59385  29640.000000  0       6567612.745        677949.470       2253896.058
10 0 59385  29700.000000  0       6417279.617        571526.659       2673552.226
10 0 59385  29760.000000  0       6239000.847        464136.006       3081873.731
10 0 59385  29820.000000  0       6033515.834        356470.408       3477126.715
10 0 59385  29880.000000  0       5801685.521        249217.088       3857632.482
10 0 59385  29940.000000  0       5544488.607        143053.696       4221774.565
10 0 59385  30000.000000  0       5263017.399         38644.454       4568005.717
10 0 59385  30060.000000  0       4958472.980        -63363.706       4894854.640
10 0 59385  30120.000000  0       4632159.824       -162344.841       5200932.284
10 0 59385  30180.000000  0       4285479.922       -257697.579       5484937.719
10 0 59385  30240.000000  0       3919926.555       -348848.448       5745663.547
10 0 59385  30300.000000  0       3537077.727       -435255.010       5982001.000
10 0 59385  30360.000000  0       3138589.172       -516408.876       6192944.604
10 0 59385  30420.000000  0       2726187.060       -591838.507       6377596.340
10 0 59385  30480.000000  0       2301660.452       -661111.758       6535169.410
10 0 59385  30540.000000  0       1866853.438       -723838.205       6664991.590
10 0 59385  30600.000000  0       1423656.993       -779671.269       6766508.076
10 0 59385  30660.000000  0        974000.611       -828310.049       6839283.770
10 0 59385  30720.000000  0        519843.865       -869500.865       6883005.059
10 0 59385  30780.000000  0         63167.838       -903038.570       6897481.182
10 0 59385  30840.000000  0       -394033.566       -928767.591       6882645.035
10 0 59385  30900.000000  0       -849762.327       -946582.683       6838553.549
10 0 59385  30960.000000  0      -1302025.108       -956429.391       6765387.550
10 0 59385  31020.000000  0      -1748842.005       -958304.207       6663451.086
10 0 59385  31080.000000  0      -2188255.237       -952254.456       6533170.304
10 0 59385  31140.000000  0      -2618337.791       -938377.898       6375091.855
10 0 59385  31200.000000  0      -3037202.008       -916822.016       6189880.870
10 0 59385  31260.000000  0      -3443008.114       -887783.050       5978318.367
10 0 59385  31320.000000  0      -3833972.526       -851504.781       5741298.129
10 0 59385  31380.000000  0      -4208375.972       -808277.028       5479823.132
10 0 59385  31440.000000  0      -4564571.405       -758433.860       5195001.420
10 0 59385  31500.000000  0      -4900991.538       -702351.539       4888041.467
10 0 59385  31560.000000  0      -5216156.076       -640446.233       4560247.161
10 0 59385  31620.000000  0      -5508678.613       -573171.484       4213012.243
10 0 59385  31680.000000  0      -5777273.010       -501015.428       3847814.359
10 0 59385  31740.000000  0      -6020759.373       -424497.828       3466208.769
10 0 59385  31800.000000  0      -6238069.591       -344166.906       3069821.691
10 0 59385  31860.000000  0      -6428252.414       -260595.972       2660343.259
10 0 59385  31920.000000  0      -6590477.966       -174379.881       2239520.098
10 0 59385  31980.000000  0      -6724041.620        -86131.389       1809147.611
10 0 59385  32040.000000  0      -6828367.280          3522.598       1371062.029
10 0 59385  32100.000000  0      -6903010.024         93944.873        927132.249
10 0 59385  32160.000000  0      -6947658.086        184491.842        479251.514
10 0 59385  32220.000000  0      -6962134.173        274517.493         29328.985
10 0 59385  32280.000000  0      -6946396.100        363377.386       -420718.774
10 0 59385  32340.000000  0      -6900536.727        450432.625       -868976.307
10 0 59385  32400.000000  0      -6824783.197        535053.769      -1313537.731
10 0 59385  32460.000000  0      -6719495.555        616624.695      -1752515.038
10 0 59385  32520.000000  0      -6585164.826        694546.365      -2184046.294
10 0 59385  32580.000000  0      -6422410.494        768240.522      -2606303.832
10 0 59385  32640.000000  0      -6231977.207        837153.250      -3017502.270
10 0 59385  32700.000000  0      -6014730.789        900758.374      -3415906.161
10 0 59385  32760.000000  0      -5771653.820        958560.664      -3799837.244
10 0 59385  32820.000000  0      -5503840.734       1010098.875      -4167681.461
10 0 59385  32880.000000  0      -5212492.412       1054948.575      -4517895.619
10 0 59385  32940.000000  0      -4898910.328       1092724.736      -4849013.664
10 0 59385  33000.000000  0      -4564490.297       1123084.097      -5159652.541
10 0 59385  33060.000000  0      -4210715.894       1145727.309      -5448517.627
10 0 59385  33120.000000  0      -3839151.577       1160400.800      -5714407.769
10 0 59385  33180.000000  0      -3451435.489       1166898.380      -5956219.915
10 0 59385  33240.000000  0      -3049272.016       1165062.550      -6172953.231
10 0 59385  33300.000000  0      -2634424.228       1154785.594      -6363712.802
10 0 59385  33360.000000  0      -2208706.075       1136010.450      -6527712.983
10 0 59385  33420.000000  0      -1773974.375       1108731.278      -6664280.180
10 0 59385  33480.000000  0      -1332120.808       1072993.738      -6772855.155
10 0 59385  33540.000000  0       -885063.842       1028894.995      -6852994.957
10 0 59385  33600.000000  0       -434740.599        976583.480      -6904374.388
10 0 59385  33660.000000  0         16901.232        916258.407      -6926787.062
10 0 59385  33720.000000  0        467911.495        848169.007      -6920146.163
10 0 59385  33780.000000  0        916345.788        772613.484      -6884484.798
10 0 59385  33840.000000  0       1360273.701        689937.734      -6819955.756
10 0 59385  33900.000000  0       1797786.835        600533.791      -6726830.786
10 0 59385  33960.000000  0       2227006.719        504838.035      -6605499.541
10 0 59385  34020.000000  0       2646092.676        403329.198      -6456468.131
10 0 59385  34080.000000  0       3053249.588        296526.117      -6280357.145
10 0 59385  34140.000000  0       3446735.359        184985.216      -6077899.262
10 0 59385  34200.000000  0       3824868.232         69297.762      -5849936.507
10 0 59385  34260.000000  0       4186033.871        -49913.028      -5597417.069
10 0 59385  34320.000000  0       4528692.251       -171995.086      -5321391.790
10 0 59385  34380.000000  0       4851384.382       -296270.821      -5023010.171
10 0 59385  34440.000000  0       5152738.642       -422040.609      -4703515.884
10 0 59385  34500.000000  0       5431476.750       -548586.442      -4364241.913
10 0 59385  34560.000000  0       5686419.396       -675175.715      -4006605.333
10 0 59385  34620.000000  0       5916491.493       -801065.141      -3632101.692
10 0 59385  34680.000000  0       6120726.992       -925504.805      -3242299.026
10 0 59385  34740.000000  0       6298273.266      -1047742.292      -2838831.535
10 0 59385  34800.000000  0       6448395.026      -1167026.877      -2423392.893
10 0 59385  34860.000000  0       6570477.717      -1282613.750      -1997729.250
10 0 59385  34920.000000  0       6664030.366      -1393768.267      -1563631.963
10 0 59385  34980.000000  0       6728687.866      -1499770.186      -1122930.068
10 0 59385  35040.000000  0       6764212.683      -1599917.865       -677482.571
10 0 59385  35100.000000  0       6770496.017      -1693532.412       -229170.558
10 0 59385  35160.000000  0       6747558.366      -1779961.782        220110.877
10 0 59385  35220.000000  0       6695549.426      -1858584.728        668460.833
10 0 59385  35280.000000  0       6614747.325      -1928814.601       1113980.817
10 0 59385  35340.000000  0       6505557.331      -1990103.034       1554782.918
10 0 59385  35400.000000  0       6368509.936      -2041943.464       1988998.058
10 0 59385  35460.000000  0       6204258.299      -2083874.399       2414784.142
10 0 59385  35520.000000  0       6013575.117      -2115482.434       2830334.072
10 0 59385  35580.000000  0       5797348.885      -2136405.069       3233883.606
10 0 59385  35640.000000  0       5556579.630      -2146333.261       3623718.974
10 0 59385  35700.000000  0       5292374.135      -2145013.703       3998184.273
10 0 59385  35760.000000  0       5005940.689      -2132250.785       4355688.549
10 0 59385  35820.000000  0       4698583.449      -2107908.256       4694712.603
10 0 59385  35880.000000  0       4371696.399      -2071910.588       5013815.543
10 0 59385  35940.000000  0       4026756.817      -2024244.057       5311641.000
99
